[{"OBJECT_NAME":"GAOFEN-1 03","OBJECT_ID":"2018-031B","EPOCH":"2026-03-09T23:48:52.763904","MEAN_MOTION":14.76478861,"ECCENTRICITY":0.00036922,"INCLINATION":98.0633,"RA_OF_ASC_NODE":131.613,"ARG_OF_PERICENTER":51.6467,"MEAN_ANOMALY":308.5074,"EPHEMERIS_TYPE":0,"CLASSIFICATION_TYPE":"U","NORAD_CAT_ID":43260,"ELEMENT_SET_NO":999,"REV_AT_EPOCH":42805,"BSTAR":0.00016454166,"MEAN_MOTION_DOT":1.094e-5,"MEAN_MOTION_DDOT":0},{"OBJECT_NAME":"COSMOS 1275 DEB","OBJECT_ID":"1981-053BQ","EPOCH":"2026-03-09T15:40:24.357216","MEAN_MOTION":14.77002931,"ECCENTRICITY":0.0001198,"INCLINATION":82.9323,"RA_OF_ASC_NODE":284.0642,"ARG_OF_PERICENTER":58.3597,"MEAN_ANOMALY":301.7733,"EPHEMERIS_TYPE":0,"CLASSIFICATION_TYPE":"U","NORAD_CAT_ID":12723,"ELEMENT_SET_NO":999,"REV_AT_EPOCH":29706,"BSTAR":0.0025696,"MEAN_MOTION_DOT":0.0001816,"MEAN_MOTION_DDOT":0}]
